NORAD_CAT_ID,OBJECT_NAME,OBJECT_TYPE,EPOCH,MEAN_MOTION,ECCENTRICITY,INCLINATION,RA_OF_ASC_NODE,ARG_OF_PERICENTER,MEAN_ANOMALY,BSTAR,MEAN_MOTION_DOT,MEAN_MOTION_DDOT,TLE_LINE0,TLE_LINE1,TLE_LINE2,SEMIMAJOR_AXIS,PERIOD,APOGEE,PERIGEE,DECAYED
53923.0,STARLINK-5004,PAYLOAD,2023-03-11 12:17:12,15.0883114,0.0001539,53.2176,185.898,78.0591,282.0574,-6.7447e-05,-1.361e-05,0.0,0 STARLINK-5004,1 53923U 22119AP  23070.51195223 -.00001361  00000-0 -67447-4 0  9992,2 53923  53.2176 185.8980 0001539  78.0591 282.0574 15.08831140 26642,6917.907,95.438,540.837,538.708,0.0
53923.0,STARLINK-5004,PAYLOAD,2023-03-12 07:21:52,15.08812417,0.0001854,53.2195,182.3279,101.46,258.6601,-9.5883e-05,-1.813e-05,0.0,0 STARLINK-5004,1 53923U 22119AP  23071.30685352 -.00001813  00000-0 -95883-4 0  9994,2 53923  53.2195 182.3279 0001854 101.4600 258.6601 15.08812417 26341,6917.965,95.439,541.112,538.547,0.0
53923.0,STARLINK-5004,PAYLOAD,2023-03-12 16:54:10,15.08820672,0.0001853,53.2166,180.5437,89.3932,270.7272,-5.5029e-05,-1.163e-05,0.0,0 STARLINK-5004,1 53923U 22119AP  23071.70429312 -.00001163  00000-0 -55029-4 0  9996,2 53923  53.2166 180.5437 0001853  89.3932 270.7272 15.08820672 26404,6917.939,95.439,541.086,538.523,0.0
53923.0,STARLINK-5004,PAYLOAD,2023-03-13 07:12:37,15.08836741,0.0001667,53.2191,177.8711,71.1279,288.9894,0.00020584,2.989e-05,0.0,0 STARLINK-5004,1 53923U 22119AP  23072.30043637  .00002989  00000-0  20584-3 0  9997,2 53923  53.2191 177.8711 0001667  71.1279 288.9894 15.08836741 26496,6917.89,95.438,540.909,538.602,0.0
53923.0,STARLINK-5004,PAYLOAD,2023-03-14 13:24:56,15.08844475,0.0001156,53.2196,172.2189,100.8991,259.2131,0.00019578,2.83e-05,0.0,0 STARLINK-5004,1 53923U 22119AP  23073.55899038  .00002830  00000-0  19578-3 0  9995,2 53923  53.2196 172.2189 0001156 100.8991 259.2131 15.08844475 26682,6917.867,95.437,540.531,538.932,0.0
53923.0,STARLINK-5004,PAYLOAD,2023-03-15 11:40:19,15.08866314,0.0002052,53.2206,168.0558,120.5529,239.5666,6.3485e-05,7.23e-06,0.0,0 STARLINK-5004,1 53923U 22119AP  23074.48633181  .00000723  00000-0  63485-4 0  9999,2 53923  53.2206 168.0558 0002052 120.5529 239.5666 15.08866314 26825,6917.8,95.436,541.084,538.245,0.0
53923.0,STARLINK-5004,PAYLOAD,2023-03-15 22:48:00,15.08858131,0.0001242,53.2182,165.9745,87.7697,272.3437,0.00011962,1.617e-05,0.0,0 STARLINK-5004,1 53923U 22119AP  23074.95000675  .00001617  00000-0  11962-3 0  9992,2 53923  53.2182 165.9745 0001242  87.7697 272.3437 15.08858131 26898,6917.825,95.436,540.549,538.831,0.0
53923.0,STARLINK-5004,PAYLOAD,2023-03-16 11:31:08,15.08826513,0.000135,53.2189,163.5971,97.0771,263.0374,-0.00016352,-2.888e-05,0.0,0 STARLINK-5004,1 53923U 22119AP  23075.47995633 -.00002888  00000-0 -16352-3 0  9998,2 53923  53.2189 163.5971 0001350  97.0771 263.0374 15.08826513 26972,6917.922,95.438,540.721,538.853,0.0
53923.0,STARLINK-5004,PAYLOAD,2023-03-17 11:21:56,15.08828523,0.0001575,53.2188,159.1349,121.9418,238.1727,-0.00022692,-3.896e-05,0.0,0 STARLINK-5004,1 53923U 22119AP  23076.47356499 -.00003896  00000-0 -22692-3 0  9994,2 53923  53.2188 159.1349 0001575 121.9418 238.1727 15.08828523 27547,6917.915,95.438,540.87,538.691,0.0
53923.0,STARLINK-5004,PAYLOAD,2023-03-17 14:32:42,15.08830276,0.0001763,53.2192,158.5402,125.663,234.4526,-0.00020432,-3.538e-05,0.0,0 STARLINK-5004,1 53923U 22119AP  23076.60604389 -.00003538  00000-0 -20432-3 0  9996,2 53923  53.2192 158.5402 0001763 125.6630 234.4526 15.08830276 27141,6917.91,95.438,540.995,538.555,0.0
53923.0,STARLINK-5004,PAYLOAD,2023-03-17 22:29:36,15.08846276,0.0001174,53.2177,157.0527,110.224,249.8879,-0.00012814,-2.327e-05,0.0,0 STARLINK-5004,1 53923U 22119AP  23076.93723217 -.00002327  00000-0 -12814-3 0  9994,2 53923  53.2177 157.0527 0001174 110.2240 249.8879 15.08846276 27192,6917.861,95.437,540.538,538.914,0.0
53923.0,STARLINK-5004,PAYLOAD,2023-03-18 12:48:04,15.08848238,0.0001175,53.2179,154.3772,109.5629,250.549,0.00028429,4.241e-05,0.0,0 STARLINK-5004,1 53923U 22119AP  23077.53337969  .00004241  00000-0  28429-3 0  9990,2 53923  53.2179 154.3772 0001175 109.5629 250.5490 15.08848238 27287,6917.855,95.437,540.533,538.907,0.0
53923.0,STARLINK-5004,PAYLOAD,2023-03-19 04:41:56,15.08835215,0.0001365,53.2196,151.4043,104.494,255.6203,0.00017063,2.428e-05,0.0,0 STARLINK-5004,1 53923U 22119AP  23078.19579494  .00002428  00000-0  17063-3 0  9991,2 53923  53.2196 151.4043 0001365 104.4940 255.6203 15.08835215 27386,6917.895,95.438,540.704,538.816,0.0
53923.0,STARLINK-5004,PAYLOAD,2023-03-19 11:03:29,15.08839803,0.0001129,53.2181,150.2139,103.0908,257.021,0.00016155,2.284e-05,0.0,0 STARLINK-5004,1 53923U 22119AP  23078.46075255  .00002284  00000-0  16155-3 0  9998,2 53923  53.2181 150.2139 0001129 103.0908 257.0210 15.08839803 27842,6917.881,95.438,540.527,538.965,0.0
53923.0,STARLINK-5004,PAYLOAD,2023-03-20 10:54:15,15.0885369,0.0001143,53.2181,145.7536,101.3146,258.7975,-5.8178e-05,-1.214e-05,0.0,0 STARLINK-5004,1 53923U 22119AP  23079.45434813 -.00001214  00000-0 -58178-4 0  9993,2 53923  53.2181 145.7536 0001143 101.3146 258.7975 15.08853690 27579,6917.839,95.437,540.494,538.913,0.0
53923.0,STARLINK-5004,PAYLOAD,2023-03-20 15:40:24,15.08859951,0.0001271,53.2171,144.8601,107.6304,252.4827,-6.3378e-06,-3.89e-06,0.0,0 STARLINK-5004,1 53923U 22119AP  23079.65306001 -.00000389  00000-0 -63378-5 0  9993,2 53923  53.2171 144.8601 0001271 107.6304 252.4827 15.08859951 28022,6917.819,95.436,540.564,538.805,0.0
53923.0,STARLINK-5004,PAYLOAD,2023-03-21 10:45:03,15.08839802,0.0001357,53.2174,141.2929,86.4584,273.6563,-1.4811e-05,-5.24e-06,0.0,0 STARLINK-5004,1 53923U 22119AP  23080.44795251 -.00000524  00000-0 -14811-4 0  9999,2 53923  53.2174 141.2929 0001357  86.4584 273.6563 15.08839802 27729,6917.881,95.438,540.685,538.807,0.0
53923.0,STARLINK-5004,PAYLOAD,2023-03-22 10:35:50,15.08836777,0.0001364,53.2188,136.8334,95.7189,264.3959,-3.8564e-05,-9.02e-06,0.0,0 STARLINK-5004,1 53923U 22119AP  23081.44155754 -.00000902  00000-0 -38564-4 0  9999,2 53923  53.2188 136.8334 0001364  95.7189 264.3959 15.08836777 28293,6917.89,95.438,540.699,538.812,0.0
53923.0,STARLINK-5004,PAYLOAD,2023-03-23 04:05:04,15.08837246,0.0001247,53.2184,133.5619,100.5619,259.5514,8.3426e-05,1.04e-05,0.0,0 STARLINK-5004,1 53923U 22119AP  23082.17019333  .00001040  00000-0  83426-4 0  9991,2 53923  53.2184 133.5619 0001247 100.5619 259.5514 15.08837246 27982,6917.889,95.438,540.616,538.891,0.0
53923.0,STARLINK-5004,PAYLOAD,2023-03-23 08:51:13,15.08845107,0.000128,53.2185,132.6704,99.4011,260.7126,6.0041e-05,6.68e-06,0.0,0 STARLINK-5004,1 53923U 22119AP  23082.36891011  .00000668  00000-0  60041-4 0  9996,2 53923  53.2185 132.6704 0001280  99.4011 260.7126 15.08845107 28436,6917.865,95.437,540.615,538.844,0.0
53923.0,STARLINK-5004,PAYLOAD,2023-03-23 19:58:55,15.0884501,0.0001247,53.2186,130.5899,86.1449,273.9686,0.00010166,1.331e-05,0.0,0 STARLINK-5004,1 53923U 22119AP  23082.83258884  .00001331  00000-0  10166-3 0  9993,2 53923  53.2186 130.5899 0001247  86.1449 273.9686 15.08845010 28508,6917.865,95.437,540.593,538.867,0.0
53923.0,STARLINK-5004,PAYLOAD,2023-03-24 10:17:22,15.08894178,0.0001583,53.2194,127.9142,98.8623,261.2549,-0.00048519,-8.013e-05,0.0,0 STARLINK-5004,1 53923U 22119AP  23083.42873178 -.00008013  00000-0 -48519-3 0  9997,2 53923  53.2194 127.9142 0001583  98.8623 261.2549 15.08894178 28175,6917.715,95.434,540.675,538.485,0.0
53923.0,STARLINK-5004,PAYLOAD,2023-03-24 19:49:43,15.08839021,0.000131,53.2194,126.1312,77.5777,282.5362,1.9716e-05,2.6e-07,0.0,0 STARLINK-5004,1 53923U 22119AP  23083.82619543  .00000026  00000-0  19716-4 0  9997,2 53923  53.2194 126.1312 0001310  77.5777 282.5362 15.08839021 28239,6917.883,95.438,540.655,538.842,0.0
53923.0,STARLINK-5004,PAYLOAD,2023-03-25 03:46:40,15.08824946,0.0001535,53.2198,124.6437,80.7173,279.3992,-0.0001423,-2.551e-05,0.0,0 STARLINK-5004,1 53923U 22119AP  23084.15741178 -.00002551  00000-0 -14230-3 0  9996,2 53923  53.2198 124.6437 0001535  80.7173 279.3992 15.08824946 28287,6917.926,95.439,540.853,538.73,0.0
53923.0,STARLINK-5004,PAYLOAD,2023-03-25 19:40:32,15.08826866,0.000166,53.2185,121.6696,77.9012,282.2166,-0.00010266,-1.921e-05,0.0,0 STARLINK-5004,1 53923U 22119AP  23084.81981560 -.00001921  00000-0 -10266-3 0  9995,2 53923  53.2185 121.6696 0001660  77.9012 282.2166 15.08826866 28803,6917.921,95.438,540.934,538.637,0.0
53923.0,STARLINK-5004,PAYLOAD,2023-03-26 03:37:27,15.08827853,0.0001509,53.2178,120.1823,76.7453,283.3707,-2.5683e-05,-6.97e-06,0.0,0 STARLINK-5004,1 53923U 22119AP  23085.15101454 -.00000697  00000-0 -25683-4 0  9998,2 53923  53.2178 120.1823 0001509  76.7453 283.3707 15.08827853 28438,6917.918,95.438,540.826,538.739,0.0
53923.0,STARLINK-5004,PAYLOAD,2023-03-26 11:34:22,15.08841669,0.0001718,53.2188,118.6942,74.5396,285.5786,-3.6763e-05,-8.73e-06,0.0,0 STARLINK-5004,1 53923U 22119AP  23085.48220892 -.00000873  00000-0 -36763-4 0  9999,2 53923  53.2188 118.6942 0001718  74.5396 285.5786 15.08841669 28484,6917.875,95.437,540.929,538.552,0.0
53923.0,STARLINK-5004,PAYLOAD,2023-03-26 19:31:17,15.08848398,0.0001579,53.2187,117.208,88.8804,271.2369,3.6517e-05,2.93e-06,0.0,0 STARLINK-5004,1 53923U 22119AP  23085.81340128  .00000293  00000-0  36517-4 0  9992,2 53923  53.2187 117.2080 0001579  88.8804 271.2369 15.08848398 28539,6917.855,95.437,540.812,538.627,0.0
53923.0,STARLINK-5004,PAYLOAD,2023-03-27 01:52:50,15.08835615,0.0001878,53.2188,116.0183,77.5914,282.5288,0.00027135,4.033e-05,0.0,0 STARLINK-5004,1 53923U 22119AP  23086.07836502  .00004033  00000-0  27135-3 0  9998,2 53923  53.2188 116.0183 0001878  77.5914 282.5288 15.08835615 28577,6917.894,95.438,541.058,538.46,0.0
53923.0,STARLINK-5004,PAYLOAD,2023-03-27 08:14:22,15.08844635,0.0001903,53.2178,114.8292,77.1744,282.9461,0.00035628,5.387e-05,0.0,0 STARLINK-5004,1 53923U 22119AP  23086.34331823  .00005387  00000-0  35628-3 0  9993,2 53923  53.2178 114.8292 0001903  77.1744 282.9461 15.08844635 28613,6917.866,95.437,541.048,538.415,0.0
